[{"OBJECT_NAME":"STARLINK-33895","OBJECT_ID":"2025-098J","EPOCH":"2026-03-09T21:14:20.500800","MEAN_MOTION":14.98333798,"ECCENTRICITY":0.00029266,"INCLINATION":70.0002,"RA_OF_ASC_NODE":273.8849,"ARG_OF_PERICENTER":256.1693,"MEAN_ANOMALY":103.914,"EPHEMERIS_TYPE":0,"CLASSIFICATION_TYPE":"U","NORAD_CAT_ID":63934,"ELEMENT_SET_NO":999,"REV_AT_EPOCH":4660,"BSTAR":0.00025674868,"MEAN_MOTION_DOT":2.972e-5,"MEAN_MOTION_DDOT":0},{"OBJECT_NAME":"CZ-4B R\/B","OBJECT_ID":"2024-208C","EPOCH":"2026-03-09T16:49:23.143584","MEAN_MOTION":15.26980605,"ECCENTRICITY":0.01307988,"INCLINATION":97.9574,"RA_OF_ASC_NODE":113.1946,"ARG_OF_PERICENTER":150.913,"MEAN_ANOMALY":209.9477,"EPHEMERIS_TYPE":0,"CLASSIFICATION_TYPE":"U","NORAD_CAT_ID":61938,"ELEMENT_SET_NO":999,"REV_AT_EPOCH":7308,"BSTAR":0.00035146236,"MEAN_MOTION_DOT":0.000119,"MEAN_MOTION_DDOT":0}]
